FACSAT-2                
1 56205U 23054AD  24025.46892678  .00019720  00000+0  67630-3 0  9998
2 56205  97.3857 283.4195 0011475 310.1769  49.8466 15.30146688 44104
