{"type": "Feature", "geometry": {"type": "Point", "coordinates": ["-67.12", "4.15"]}, "properties": {"localTime": "Thu Jan 25 2024 13:40:58 GMT-0500 (hora est\u00e1ndar de Colombia)", "julianTime": "1706208058", "utcTime": "1:41:09 PM", "altitude": "497.91", "elevation": "-43.9", "TLE": {"Norad_Id": 56205, "International_Classification": "Unclassified", "International_Designation": "23054AD", "Epoch_Time_(ISO)": "2024-01-25T11:15:15Z", "First_Derivative_Mean_Motion": 0.0001972, "Second_Derivative_Mean_Motion": 0.0, "Inclination": 97.3857, "Right_Ascension_of_the_Ascending_Node": 283.4195, "Eccentricity": 0.0011475, "Argument_of_Perigee": 310.1769, "Mean_Anomaly": 49.8466, "Mean_Motion": 15.301466879999998, "Revolution_Number_at_Epoch": 4410}}}